OPS 7218 (TRANSIT 16)   
1 02807U 67048A   26062.78528286  .00000136  00000+0  19509-3 0  9990
2 02807  89.6810 351.3577 0018304 239.9212 147.8958 13.50742495893705
OPS 4947 (TRANSIT 17)   
1 02965U 67092A   26062.40460980  .00000171  00000+0  23573-3 0  9994
2 02965  89.2555  18.2893 0048016   4.2130 110.6727 13.53476068881888
OPS 7034 (TRANSIT 18)   
1 03133U 68012A   26062.62304770  .00000161  00000+0  23038-3 0  9998
2 03133  90.0216 273.8563 0072228 297.0055 121.6153 13.51587776580117
NNSS 19 (TRANSIT 19)    
1 04507U 70067A   26062.48421498  .00000142  00000+0  18352-3 0  9990
2 04507  90.0048 234.5771 0173331  59.3867 302.4251 13.51336694733128
NNSS 20 (TRANSIT 20)    
1 06909U 73081A   26062.52516460  .00000242  00000+0  23719-3 0  9990
2 06909  89.8511 253.8254 0154072 195.3170 164.3303 13.71472344814685
TRANSAT                 
1 10457U 77106A   26062.57507275  .00000091  00000+0  12933-3 0  9992
2 10457  89.6396  75.6969 0024270 324.1341 154.4746 13.48957033378333
NOVA 1                  
1 12458U 81044A   26062.65068938  .00000066  00000+0  13434-3 0  9997
2 12458  89.8425  90.2074 0012633 236.8863 243.9813 13.23286793162565
NOVA 3                  
1 15362U 84110A   26062.61587503  .00000092  00000+0  19841-3 0  9998
2 15362  90.1127  81.4500 0033402 105.6881  14.4249 13.23055957997681
OSCAR 30                
1 15935U 85066A   26062.63465115  .00000102  00000+0  17007-3 0  9995
2 15935  90.1554 101.1402 0166748 214.9109 266.4325 13.36093942975331
OSCAR 24                
1 15936U 85066B   26062.62706326  .00000104  00000+0  17320-3 0  9997
2 15936  90.1691  93.7023 0167584 221.5060 257.2791 13.35951688977233
POLAR BEAR              
1 17070U 86088A   26062.75064389  .00000126  00000+0  11941-3 0  9990
2 17070  89.6249 180.5520 0037813 234.2260 244.9848 13.75268849970926
OSCAR 27                
1 18361U 87080A   26062.49039149  .00000113  00000+0  17393-3 0  9997
2 18361  90.3647  82.2549 0103536 354.4598   5.5396 13.44923318886420
OSCAR 29                
1 18362U 87080B   26062.61484586  .00000109  00000+0  16664-3 0  9996
2 18362  90.3658  82.7249 0105925  17.2945 103.6536 13.44463571885963
OSCAR 23                
1 19070U 88033A   26062.47028602  .00000088  00000+0  16414-3 0  9998
2 19070  90.3282  18.9062 0188223 316.4013 164.7564 13.27802618833242
OSCAR 32                
1 19071U 88033B   26062.80061917  .00000079  00000+0  14685-3 0  9990
2 19071  90.3288  19.0530 0186290 302.1797 115.7774 13.27967366833414
NOVA 2                  
1 19223U 88052A   26062.62525169  .00000100  00000+0  21589-3 0  9990
2 19223  89.9780  78.1349 0031405 147.6982 330.1312 13.22946832820173
OSCAR 25                
1 19419U 88074A   26062.46729080  .00000120  00000+0  19127-3 0  9998
2 19419  90.0409  20.5160 0096911  17.1545  99.4941 13.42640328837233
