[{"OBJECT_NAME":"OPS 7218 (TRANSIT 16)","OBJECT_ID":"1967-048A","EPOCH":"2026-03-03T18:50:48.439104","MEAN_MOTION":13.50742495,"ECCENTRICITY":0.0018304,"INCLINATION":89.681,"RA_OF_ASC_NODE":351.3577,"ARG_OF_PERICENTER":239.9212,"MEAN_ANOMALY":147.8958,"EPHEMERIS_TYPE":0,"CLASSIFICATION_TYPE":"U","NORAD_CAT_ID":2807,"ELEMENT_SET_NO":999,"REV_AT_EPOCH":89370,"BSTAR":0.00019509,"MEAN_MOTION_DOT":1.36e-6,"MEAN_MOTION_DDOT":0},{"OBJECT_NAME":"OPS 4947 (TRANSIT 17)","OBJECT_ID":"1967-092A","EPOCH":"2026-03-03T09:42:38.286720","MEAN_MOTION":13.53476068,"ECCENTRICITY":0.00480166,"INCLINATION":89.2555,"RA_OF_ASC_NODE":18.2893,"ARG_OF_PERICENTER":4.213,"MEAN_ANOMALY":110.6727,"EPHEMERIS_TYPE":0,"CLASSIFICATION_TYPE":"U","NORAD_CAT_ID":2965,"ELEMENT_SET_NO":999,"REV_AT_EPOCH":88188,"BSTAR":0.0002357283,"MEAN_MOTION_DOT":1.71e-6,"MEAN_MOTION_DDOT":0},{"OBJECT_NAME":"OPS 7034 (TRANSIT 18)","OBJECT_ID":"1968-012A","EPOCH":"2026-03-03T14:57:11.321280","MEAN_MOTION":13.51587776,"ECCENTRICITY":0.0072228,"INCLINATION":90.0216,"RA_OF_ASC_NODE":273.8563,"ARG_OF_PERICENTER":297.0055,"MEAN_ANOMALY":121.6153,"EPHEMERIS_TYPE":0,"CLASSIFICATION_TYPE":"U","NORAD_CAT_ID":3133,"ELEMENT_SET_NO":999,"REV_AT_EPOCH":58011,"BSTAR":0.00023038,"MEAN_MOTION_DOT":1.61e-6,"MEAN_MOTION_DDOT":0},{"OBJECT_NAME":"NNSS 19 (TRANSIT 19)","OBJECT_ID":"1970-067A","EPOCH":"2026-03-03T11:37:16.174272","MEAN_MOTION":13.51336694,"ECCENTRICITY":0.01733313,"INCLINATION":90.0048,"RA_OF_ASC_NODE":234.5771,"ARG_OF_PERICENTER":59.3867,"MEAN_ANOMALY":302.4251,"EPHEMERIS_TYPE":0,"CLASSIFICATION_TYPE":"U","NORAD_CAT_ID":4507,"ELEMENT_SET_NO":999,"REV_AT_EPOCH":73312,"BSTAR":0.00018351575,"MEAN_MOTION_DOT":1.42e-6,"MEAN_MOTION_DDOT":0},{"OBJECT_NAME":"NNSS 20 (TRANSIT 20)","OBJECT_ID":"1973-081A","EPOCH":"2026-03-03T12:36:14.221440","MEAN_MOTION":13.71472344,"ECCENTRICITY":0.0154072,"INCLINATION":89.8511,"RA_OF_ASC_NODE":253.8254,"ARG_OF_PERICENTER":195.317,"MEAN_ANOMALY":164.3303,"EPHEMERIS_TYPE":0,"CLASSIFICATION_TYPE":"U","NORAD_CAT_ID":6909,"ELEMENT_SET_NO":999,"REV_AT_EPOCH":81468,"BSTAR":0.00023719,"MEAN_MOTION_DOT":2.42e-6,"MEAN_MOTION_DDOT":0},{"OBJECT_NAME":"TRANSAT","OBJECT_ID":"1977-106A","EPOCH":"2026-03-03T13:48:06.285600","MEAN_MOTION":13.48957033,"ECCENTRICITY":0.002427,"INCLINATION":89.6396,"RA_OF_ASC_NODE":75.6969,"ARG_OF_PERICENTER":324.1341,"MEAN_ANOMALY":154.4746,"EPHEMERIS_TYPE":0,"CLASSIFICATION_TYPE":"U","NORAD_CAT_ID":10457,"ELEMENT_SET_NO":999,"REV_AT_EPOCH":37833,"BSTAR":0.00012933,"MEAN_MOTION_DOT":9.1e-7,"MEAN_MOTION_DDOT":0},{"OBJECT_NAME":"NOVA 1","OBJECT_ID":"1981-044A","EPOCH":"2026-03-03T15:36:59.562432","MEAN_MOTION":13.23286793,"ECCENTRICITY":0.0012633,"INCLINATION":89.8425,"RA_OF_ASC_NODE":90.2074,"ARG_OF_PERICENTER":236.8863,"MEAN_ANOMALY":243.9813,"EPHEMERIS_TYPE":0,"CLASSIFICATION_TYPE":"U","NORAD_CAT_ID":12458,"ELEMENT_SET_NO":999,"REV_AT_EPOCH":16256,"BSTAR":0.00013434,"MEAN_MOTION_DOT":6.6e-7,"MEAN_MOTION_DDOT":0},{"OBJECT_NAME":"NOVA 3","OBJECT_ID":"1984-110A","EPOCH":"2026-03-03T14:46:51.602592","MEAN_MOTION":13.23055957,"ECCENTRICITY":0.0033402,"INCLINATION":90.1127,"RA_OF_ASC_NODE":81.45,"ARG_OF_PERICENTER":105.6881,"MEAN_ANOMALY":14.4249,"EPHEMERIS_TYPE":0,"CLASSIFICATION_TYPE":"U","NORAD_CAT_ID":15362,"ELEMENT_SET_NO":999,"REV_AT_EPOCH":99768,"BSTAR":0.00019841,"MEAN_MOTION_DOT":9.2e-7,"MEAN_MOTION_DDOT":0},{"OBJECT_NAME":"OSCAR 30","OBJECT_ID":"1985-066A","EPOCH":"2026-03-03T15:13:53.859360","MEAN_MOTION":13.36093942,"ECCENTRICITY":0.0166748,"INCLINATION":90.1554,"RA_OF_ASC_NODE":101.1402,"ARG_OF_PERICENTER":214.9109,"MEAN_ANOMALY":266.4325,"EPHEMERIS_TYPE":0,"CLASSIFICATION_TYPE":"U","NORAD_CAT_ID":15935,"ELEMENT_SET_NO":999,"REV_AT_EPOCH":97533,"BSTAR":0.00017007,"MEAN_MOTION_DOT":1.02e-6,"MEAN_MOTION_DDOT":0},{"OBJECT_NAME":"OSCAR 24","OBJECT_ID":"1985-066B","EPOCH":"2026-03-03T15:02:58.265664","MEAN_MOTION":13.35951688,"ECCENTRICITY":0.0167584,"INCLINATION":90.1691,"RA_OF_ASC_NODE":93.7023,"ARG_OF_PERICENTER":221.506,"MEAN_ANOMALY":257.2791,"EPHEMERIS_TYPE":0,"CLASSIFICATION_TYPE":"U","NORAD_CAT_ID":15936,"ELEMENT_SET_NO":999,"REV_AT_EPOCH":97723,"BSTAR":0.0001732,"MEAN_MOTION_DOT":1.04e-6,"MEAN_MOTION_DDOT":0},{"OBJECT_NAME":"POLAR BEAR","OBJECT_ID":"1986-088A","EPOCH":"2026-03-03T18:00:55.632096","MEAN_MOTION":13.75268849,"ECCENTRICITY":0.0037813,"INCLINATION":89.6249,"RA_OF_ASC_NODE":180.552,"ARG_OF_PERICENTER":234.226,"MEAN_ANOMALY":244.9848,"EPHEMERIS_TYPE":0,"CLASSIFICATION_TYPE":"U","NORAD_CAT_ID":17070,"ELEMENT_SET_NO":999,"REV_AT_EPOCH":97092,"BSTAR":0.00011941,"MEAN_MOTION_DOT":1.26e-6,"MEAN_MOTION_DDOT":0},{"OBJECT_NAME":"OSCAR 27","OBJECT_ID":"1987-080A","EPOCH":"2026-03-03T11:46:09.824736","MEAN_MOTION":13.44923318,"ECCENTRICITY":0.01035367,"INCLINATION":90.3647,"RA_OF_ASC_NODE":82.2549,"ARG_OF_PERICENTER":354.4598,"MEAN_ANOMALY":5.5396,"EPHEMERIS_TYPE":0,"CLASSIFICATION_TYPE":"U","NORAD_CAT_ID":18361,"ELEMENT_SET_NO":999,"REV_AT_EPOCH":88642,"BSTAR":0.00017392827,"MEAN_MOTION_DOT":1.13e-6,"MEAN_MOTION_DDOT":0},{"OBJECT_NAME":"OSCAR 29","OBJECT_ID":"1987-080B","EPOCH":"2026-03-03T14:45:22.682304","MEAN_MOTION":13.44463571,"ECCENTRICITY":0.0105925,"INCLINATION":90.3658,"RA_OF_ASC_NODE":82.7249,"ARG_OF_PERICENTER":17.2945,"MEAN_ANOMALY":103.6536,"EPHEMERIS_TYPE":0,"CLASSIFICATION_TYPE":"U","NORAD_CAT_ID":18362,"ELEMENT_SET_NO":999,"REV_AT_EPOCH":88596,"BSTAR":0.00016664,"MEAN_MOTION_DOT":1.09e-6,"MEAN_MOTION_DDOT":0},{"OBJECT_NAME":"OSCAR 23","OBJECT_ID":"1988-033A","EPOCH":"2026-03-03T11:17:12.712128","MEAN_MOTION":13.27802618,"ECCENTRICITY":0.01882231,"INCLINATION":90.3282,"RA_OF_ASC_NODE":18.9062,"ARG_OF_PERICENTER":316.4013,"MEAN_ANOMALY":164.7564,"EPHEMERIS_TYPE":0,"CLASSIFICATION_TYPE":"U","NORAD_CAT_ID":19070,"ELEMENT_SET_NO":999,"REV_AT_EPOCH":83324,"BSTAR":0.00016414059,"MEAN_MOTION_DOT":8.8e-7,"MEAN_MOTION_DDOT":0},{"OBJECT_NAME":"OSCAR 32","OBJECT_ID":"1988-033B","EPOCH":"2026-03-03T19:12:53.496288","MEAN_MOTION":13.27967366,"ECCENTRICITY":0.018629,"INCLINATION":90.3288,"RA_OF_ASC_NODE":19.053,"ARG_OF_PERICENTER":302.1797,"MEAN_ANOMALY":115.7774,"EPHEMERIS_TYPE":0,"CLASSIFICATION_TYPE":"U","NORAD_CAT_ID":19071,"ELEMENT_SET_NO":999,"REV_AT_EPOCH":83341,"BSTAR":0.00014685,"MEAN_MOTION_DOT":7.9e-7,"MEAN_MOTION_DDOT":0},{"OBJECT_NAME":"NOVA 2","OBJECT_ID":"1988-052A","EPOCH":"2026-03-03T15:00:21.746016","MEAN_MOTION":13.22946832,"ECCENTRICITY":0.0031405,"INCLINATION":89.978,"RA_OF_ASC_NODE":78.1349,"ARG_OF_PERICENTER":147.6982,"MEAN_ANOMALY":330.1312,"EPHEMERIS_TYPE":0,"CLASSIFICATION_TYPE":"U","NORAD_CAT_ID":19223,"ELEMENT_SET_NO":999,"REV_AT_EPOCH":82017,"BSTAR":0.00021589,"MEAN_MOTION_DOT":1.0e-6,"MEAN_MOTION_DDOT":0},{"OBJECT_NAME":"OSCAR 25","OBJECT_ID":"1988-074A","EPOCH":"2026-03-03T11:12:53.925120","MEAN_MOTION":13.42640328,"ECCENTRICITY":0.00969114,"INCLINATION":90.0409,"RA_OF_ASC_NODE":20.516,"ARG_OF_PERICENTER":17.1545,"MEAN_ANOMALY":99.4941,"EPHEMERIS_TYPE":0,"CLASSIFICATION_TYPE":"U","NORAD_CAT_ID":19419,"ELEMENT_SET_NO":999,"REV_AT_EPOCH":83723,"BSTAR":0.00019127321,"MEAN_MOTION_DOT":1.2e-6,"MEAN_MOTION_DDOT":0}]
